[{"OBJECT_NAME":"STARLINK-5154","OBJECT_ID":"2022-141V","EPOCH":"2026-03-09T23:32:39.379776","MEAN_MOTION":15.08815181,"ECCENTRICITY":0.00012515,"INCLINATION":53.2197,"RA_OF_ASC_NODE":2.6682,"ARG_OF_PERICENTER":98.9186,"MEAN_ANOMALY":261.1948,"EPHEMERIS_TYPE":0,"CLASSIFICATION_TYPE":"U","NORAD_CAT_ID":54176,"ELEMENT_SET_NO":999,"REV_AT_EPOCH":18590,"BSTAR":8.4783e-7,"MEAN_MOTION_DOT":-2.74e-6,"MEAN_MOTION_DDOT":0},{"OBJECT_NAME":"FENGYUN 1C DEB","OBJECT_ID":"1999-025DWK","EPOCH":"2026-03-04T22:59:43.178496","MEAN_MOTION":14.75372926,"ECCENTRICITY":0.0170684,"INCLINATION":99.0756,"RA_OF_ASC_NODE":108.4567,"ARG_OF_PERICENTER":229.4091,"MEAN_ANOMALY":129.2157,"EPHEMERIS_TYPE":0,"CLASSIFICATION_TYPE":"U","NORAD_CAT_ID":36258,"ELEMENT_SET_NO":999,"REV_AT_EPOCH":92034,"BSTAR":0.000371885,"MEAN_MOTION_DOT":3.121e-5,"MEAN_MOTION_DDOT":0}]
